{
    "links": {
        "self": "http://www.neowsapp.com/rest/v1/neo/3475468?api_key=iIulBulltgU6a56xZRHN4H3l9WmuAYTsLGpBGhQ2"
    },
    "id": "3475468",
    "neo_reference_id": "3475468",
    "name": "(2009 VT1)",
    "designation": "2009 VT1",
    "nasa_jpl_url": "http://ssd.jpl.nasa.gov/sbdb.cgi?sstr=3475468",
    "absolute_magnitude_h": 29.5,
    "estimated_diameter": {
        "kilometers": {
            "estimated_diameter_min": 0.0033462237,
            "estimated_diameter_max": 0.0074823838
        },
        "meters": {
            "estimated_diameter_min": 3.3462237445,
            "estimated_diameter_max": 7.4823837607
        },
        "miles": {
            "estimated_diameter_min": 0.0020792464,
            "estimated_diameter_max": 0.0046493363
        },
        "feet": {
            "estimated_diameter_min": 10.9784247101,
            "estimated_diameter_max": 24.5485039376
        }
    },
    "is_potentially_hazardous_asteroid": false,
    "close_approach_data": [
        {
            "close_approach_date": "2009-11-09",
            "close_approach_date_full": "2009-Nov-09 13:16",
            "epoch_date_close_approach": 1257772560000,
            "relative_velocity": {
                "kilometers_per_second": "7.1751516972",
                "kilometers_per_hour": "25830.5461098665",
                "miles_per_hour": "16050.0968314334"
            },
            "miss_distance": {
                "astronomical": "0.0035928322",
                "lunar": "1.3976117258",
                "kilometers": "537480.044387414",
                "miles": "333974.6129737532"
            },
            "orbiting_body": "Earth"
        },
        {
            "close_approach_date": "2009-11-09",
            "close_approach_date_full": "2009-Nov-09 22:40",
            "epoch_date_close_approach": 1257806400000,
            "relative_velocity": {
                "kilometers_per_second": "7.7207901",
                "kilometers_per_hour": "27794.844359853",
                "miles_per_hour": "17270.6353745987"
            },
            "miss_distance": {
                "astronomical": "0.0048128896",
                "lunar": "1.8722140544",
                "kilometers": "719998.032705152",
                "miles": "447386.0319570176"
            },
            "orbiting_body": "Moon"
        },
        {
            "close_approach_date": "2015-10-06",
            "close_approach_date_full": "2015-Oct-06 00:26",
            "epoch_date_close_approach": 1444091160000,
            "relative_velocity": {
                "kilometers_per_second": "10.7654226177",
                "kilometers_per_hour": "38755.5214236325",
                "miles_per_hour": "24081.1738534788"
            },
            "miss_distance": {
                "astronomical": "0.0709833509",
                "lunar": "27.6125235001",
                "kilometers": "10618958.100102583",
                "miles": "6598314.5954903254"
            },
            "orbiting_body": "Mars"
        }
    ],
    "orbital_data": {
        "orbit_id": "7",
        "orbit_determination_date": "2017-04-06 08:59:15",
        "first_observation_date": "2009-11-10",
        "last_observation_date": "2009-11-11",
        "data_arc_in_days": 1,
        "observations_used": 26,
        "orbit_uncertainty": "7",
        "minimum_orbit_intersection": ".000574412",
        "jupiter_tisserand_invariant": "3.689",
        "epoch_osculation": "2459000.5",
        "eccentricity": ".5030497239982497",
        "semi_major_axis": "1.984796243865382",
        "inclination": ".2687160455334551",
        "ascending_node_longitude": "216.9517813967423",
        "orbital_period": "1021.344656166916",
        "perihelion_distance": ".9863450411961389",
        "perihelion_argument": "178.4449520979288",
        "aphelion_distance": "2.983247446534624",
        "perihelion_time": "2459220.242049380996",
        "mean_anomaly": "282.5460893151918",
        "mean_motion": ".3524765100853143",
        "equinox": "J2000",
        "orbit_class": {
            "orbit_class_type": "APO",
            "orbit_class_description": "Near-Earth asteroid orbits which cross the Earth’s orbit similar to that of 1862 Apollo",
            "orbit_class_range": "a (semi-major axis) > 1.0 AU; q (perihelion) < 1.017 AU"
        }
    },
    "is_sentry_object": false
}